{
  "type": "FeatureCollection",
  "features": [
    {
      "type": "Feature",
      "properties": {
        "norad_id": 36533,
        "name": "COSMOS 2251 DEB",
        "group": "cosmos-2251-debris",
        "lat": 73.93361719926989,
        "lon": -146.9022174214571,
        "alt_km": 753.7114237477354,
        "timestamp": "2025-12-11T05:00:26.705680+00:00",
        "meta_object_name": "COSMOS 2251 DEB",
        "meta_object_id": "1993-036BCT",
        "meta_epoch": "2025-12-10T08:42:41.261184",
        "meta_mean_motion": 14.49801207,
        "meta_eccentricity": 0.00491978,
        "meta_inclination": 74.011,
        "meta_ra_of_asc_node": 119.2951,
        "meta_arg_of_pericenter": 268.8603,
        "meta_mean_anomaly": 90.692,
        "meta_ephemeris_type": 0,
        "meta_classification_type": "U",
        "meta_norad_cat_id": 36533,
        "meta_element_set_no": 999,
        "meta_rev_at_epoch": 84450,
        "meta_bstar": 0.00079270192,
        "meta_mean_motion_dot": 3.077e-05,
        "meta_mean_motion_ddot": 0,
        "tle_line1": "1 36533U 93036BCT 25344.36297756  .00003077  00000+0  79270-3 0  9998",
        "tle_line2": "2 36533  74.0110 119.2951 0049197 268.8603  90.6920 14.49801207844509"
      },
      "geometry": {
        "type": "Point",
        "coordinates": [
          -146.9022174214571,
          73.93361719926989
        ]
      }
    },
    {
      "type": "Feature",
      "properties": {
        "norad_id": 36539,
        "name": "COSMOS 2251 DEB",
        "group": "cosmos-2251-debris",
        "lat": -57.1153350349296,
        "lon": -95.59718932029615,
        "alt_km": 686.8292001634591,
        "timestamp": "2025-12-11T05:00:26.705690+00:00",
        "meta_object_name": "COSMOS 2251 DEB",
        "meta_object_id": "1993-036BCZ",
        "meta_epoch": "2025-12-10T14:44:42.252288",
        "meta_mean_motion": 14.59278561,
        "meta_eccentricity": 0.0027327,
        "meta_inclination": 74.0238,
        "meta_ra_of_asc_node": 59.2341,
        "meta_arg_of_pericenter": 204.7285,
        "meta_mean_anomaly": 155.2572,
        "meta_ephemeris_type": 0,
        "meta_classification_type": "U",
        "meta_norad_cat_id": 36539,
        "meta_element_set_no": 999,
        "meta_rev_at_epoch": 83916,
        "meta_bstar": 0.0011709,
        "meta_mean_motion_dot": 5.534e-05,
        "meta_mean_motion_ddot": 0,
        "tle_line1": "1 36539U 93036BCZ 25344.61437792  .00005534  00000+0  11709-2 0  9990",
        "tle_line2": "2 36539  74.0238  59.2341 0027327 204.7285 155.2572 14.59278561839167"
      },
      "geometry": {
        "type": "Point",
        "coordinates": [
          -95.59718932029615,
          -57.1153350349296
        ]
      }
    },
    {
      "type": "Feature",
      "properties": {
        "norad_id": 36540,
        "name": "COSMOS 2251 DEB",
        "group": "cosmos-2251-debris",
        "lat": -25.90946758607705,
        "lon": 11.429344267934416,
        "alt_km": 696.159551610408,
        "timestamp": "2025-12-11T05:00:26.705700+00:00",
        "meta_object_name": "COSMOS 2251 DEB",
        "meta_object_id": "1993-036BDA",
        "meta_epoch": "2025-12-10T19:49:44.721120",
        "meta_mean_motion": 14.58450525,
        "meta_eccentricity": 0.00150636,
        "meta_inclination": 74.0281,
        "meta_ra_of_asc_node": 184.1599,
        "meta_arg_of_pericenter": 254.4622,
        "meta_mean_anomaly": 105.488,
        "meta_ephemeris_type": 0,
        "meta_classification_type": "U",
        "meta_norad_cat_id": 36540,
        "meta_element_set_no": 999,
        "meta_rev_at_epoch": 85982,
        "meta_bstar": 0.0015654677,
        "meta_mean_motion_dot": 7.253e-05,
        "meta_mean_motion_ddot": 0,
        "tle_line1": "1 36540U 93036BDA 25344.82621205  .00007253  00000+0  15655-2 0  9993",
        "tle_line2": "2 36540  74.0281 184.1599 0015063 254.4622 105.4880 14.58450525859826"
      },
      "geometry": {
        "type": "Point",
        "coordinates": [
          11.429344267934416,
          -25.90946758607705
        ]
      }
    },
    {
      "type": "Feature",
      "properties": {
        "norad_id": 36550,
        "name": "COSMOS 2251 DEB",
        "group": "cosmos-2251-debris",
        "lat": -37.1951709913174,
        "lon": 28.051672085168235,
        "alt_km": 757.0578783464107,
        "timestamp": "2025-12-11T05:00:26.705709+00:00",
        "meta_object_name": "COSMOS 2251 DEB",
        "meta_object_id": "1993-036BDL",
        "meta_epoch": "2025-12-10T07:47:30.355296",
        "meta_mean_motion": 14.27188592,
        "meta_eccentricity": 0.00785726,
        "meta_inclination": 74.0439,
        "meta_ra_of_asc_node": 197.11,
        "meta_arg_of_pericenter": 248.3043,
        "meta_mean_anomaly": 110.9727,
        "meta_ephemeris_type": 0,
        "meta_classification_type": "U",
        "meta_norad_cat_id": 36550,
        "meta_element_set_no": 999,
        "meta_rev_at_epoch": 84561,
        "meta_bstar": 0.00085111774,
        "meta_mean_motion_dot": 2.122e-05,
        "meta_mean_motion_ddot": 0,
        "tle_line1": "1 36550U 93036BDL 25344.32465689  .00002122  00000+0  85112-3 0  9997",
        "tle_line2": "2 36550  74.0439 197.1100 0078572 248.3043 110.9727 14.27188592845618"
      },
      "geometry": {
        "type": "Point",
        "coordinates": [
          28.051672085168235,
          -37.1951709913174
        ]
      }
    },
    {
      "type": "Feature",
      "properties": {
        "norad_id": 36551,
        "name": "COSMOS 2251 DEB",
        "group": "cosmos-2251-debris",
        "lat": -38.48186505223386,
        "lon": -148.85732952919054,
        "alt_km": 575.4575681186097,
        "timestamp": "2025-12-11T05:00:26.705719+00:00",
        "meta_object_name": "COSMOS 2251 DEB",
        "meta_object_id": "1993-036BDM",
        "meta_epoch": "2025-12-10T08:50:58.961472",
        "meta_mean_motion": 15.0244144,
        "meta_eccentricity": 0.00508419,
        "meta_inclination": 73.886,
        "meta_ra_of_asc_node": 19.5853,
        "meta_arg_of_pericenter": 329.1413,
        "meta_mean_anomaly": 30.6788,
        "meta_ephemeris_type": 0,
        "meta_classification_type": "U",
        "meta_norad_cat_id": 36551,
        "meta_element_set_no": 999,
        "meta_rev_at_epoch": 66896,
        "meta_bstar": 0.0019097723,
        "meta_mean_motion_dot": 0.00026098,
        "meta_mean_motion_ddot": 0,
        "tle_line1": "1 36551U 93036BDM 25344.36873798  .00026098  00000+0  19098-2 0  9993",
        "tle_line2": "2 36551  73.8860  19.5853 0050841 329.1413  30.6788 15.02441440668968"
      },
      "geometry": {
        "type": "Point",
        "coordinates": [
          -148.85732952919054,
          -38.48186505223386
        ]
      }
    },
    {
      "type": "Feature",
      "properties": {
        "norad_id": 36557,
        "name": "COSMOS 2251 DEB",
        "group": "cosmos-2251-debris",
        "lat": -21.54868518553698,
        "lon": 122.75322756841928,
        "alt_km": 632.1709869612268,
        "timestamp": "2025-12-11T05:00:26.705729+00:00",
        "meta_object_name": "COSMOS 2251 DEB",
        "meta_object_id": "1993-036BDT",
        "meta_epoch": "2025-12-10T16:06:48.613536",
        "meta_mean_motion": 14.78068124,
        "meta_eccentricity": 0.00210997,
        "meta_inclination": 73.9801,
        "meta_ra_of_asc_node": 130.3261,
        "meta_arg_of_pericenter": 281.9756,
        "meta_mean_anomaly": 77.9054,
        "meta_ephemeris_type": 0,
        "meta_classification_type": "U",
        "meta_norad_cat_id": 36557,
        "meta_element_set_no": 999,
        "meta_rev_at_epoch": 33866,
        "meta_bstar": 0.0052878303,
        "meta_mean_motion_dot": 0.00038549,
        "meta_mean_motion_ddot": 0,
        "tle_line1": "1 36557U 93036BDT 25344.67139599  .00038549  00000+0  52878-2 0  9994",
        "tle_line2": "2 36557  73.9801 130.3261 0021099 281.9756  77.9054 14.78068124338660"
      },
      "geometry": {
        "type": "Point",
        "coordinates": [
          122.75322756841928,
          -21.54868518553698
        ]
      }
    },
    {
      "type": "Feature",
      "properties": {
        "norad_id": 36558,
        "name": "COSMOS 2251 DEB",
        "group": "cosmos-2251-debris",
        "lat": 40.03092235961679,
        "lon": 171.35056857133443,
        "alt_km": 713.2239269709507,
        "timestamp": "2025-12-11T05:00:26.705739+00:00",
        "meta_object_name": "COSMOS 2251 DEB",
        "meta_object_id": "1993-036BDU",
        "meta_epoch": "2025-12-09T18:10:09.606432",
        "meta_mean_motion": 14.55323693,
        "meta_eccentricity": 0.00129627,
        "meta_inclination": 74.0418,
        "meta_ra_of_asc_node": 160.1895,
        "meta_arg_of_pericenter": 248.6111,
        "meta_mean_anomaly": 111.367,
        "meta_ephemeris_type": 0,
        "meta_classification_type": "U",
        "meta_norad_cat_id": 36558,
        "meta_element_set_no": 999,
        "meta_rev_at_epoch": 85225,
        "meta_bstar": 0.0013992246,
        "meta_mean_motion_dot": 6.051e-05,
        "meta_mean_motion_ddot": 0,
        "tle_line1": "1 36558U 93036BDU 25343.75705563  .00006051  00000+0  13992-2 0  9990",
        "tle_line2": "2 36558  74.0418 160.1895 0012962 248.6111 111.3670 14.55323693852258"
      },
      "geometry": {
        "type": "Point",
        "coordinates": [
          171.35056857133443,
          40.03092235961679
        ]
      }
    }
  ]
}